[{"OBJECT_NAME":"STARLINK-30908","OBJECT_ID":"2023-180Y","EPOCH":"2026-03-09T00:14:20.092128","MEAN_MOTION":15.26739149,"ECCENTRICITY":0.00013014,"INCLINATION":43.0016,"RA_OF_ASC_NODE":56.1487,"ARG_OF_PERICENTER":269.1344,"MEAN_ANOMALY":90.9358,"EPHEMERIS_TYPE":0,"CLASSIFICATION_TYPE":"U","NORAD_CAT_ID":58424,"ELEMENT_SET_NO":999,"REV_AT_EPOCH":12752,"BSTAR":8.2216929e-5,"MEAN_MOTION_DOT":1.946e-5,"MEAN_MOTION_DDOT":0},{"OBJECT_NAME":"OBJECT V","OBJECT_ID":"2025-155V","EPOCH":"2026-03-09T20:35:20.067360","MEAN_MOTION":15.27583301,"ECCENTRICITY":0.00080353,"INCLINATION":97.4485,"RA_OF_ASC_NODE":37.249,"ARG_OF_PERICENTER":152.8264,"MEAN_ANOMALY":207.3397,"EPHEMERIS_TYPE":0,"CLASSIFICATION_TYPE":"U","NORAD_CAT_ID":64895,"ELEMENT_SET_NO":999,"REV_AT_EPOCH":6557,"BSTAR":0.00051002361,"MEAN_MOTION_DOT":0.00013705,"MEAN_MOTION_DDOT":0}]
